{
  "norad_id": 61941,
  "name": "STARLINK-11353 [DTC]",
  "history": [
    {
      "epoch": "2026-03-28T19:08:43.660320Z",
      "apogee_km": 360.4083768575201,
      "perigee_km": 359.0718515531453,
      "latitude_deg": 2.6582225022541352e-05,
      "longitude_deg": 163.33268976700867,
      "height_km": 360.2453858784654,
      "semi_major_axis_km": 6737.877114205332,
      "eccentricity": 9.918e-05,
      "inclination_deg": 53.1565,
      "raan_deg": 276.7276,
      "arg_perigee_deg": 52.3257,
      "mean_anomaly_deg": 307.7851,
      "mean_motion_rev_day": 15.6970533
    },
    {
      "epoch": "2026-03-28T22:12:05.773248Z",
      "apogee_km": 360.2430256664411,
      "perigee_km": 358.77287153865655,
      "latitude_deg": -1.996404651073385e-05,
      "longitude_deg": 116.7373065253199,
      "height_km": 359.9146908259451,
      "semi_major_axis_km": 6737.6449486025485,
      "eccentricity": 0.0001091,
      "inclination_deg": 53.1568,
      "raan_deg": 276.0999,
      "arg_perigee_deg": 46.3897,
      "mean_anomaly_deg": 313.7211,
      "mean_motion_rev_day": 15.69786464
    },
    {
      "epoch": "2026-03-30T04:45:46.342656Z",
      "apogee_km": 360.62297367075917,
      "perigee_km": 358.8131857963417,
      "latitude_deg": -6.0030954460085416e-05,
      "longitude_deg": 10.785331449676262,
      "height_km": 360.31197946971906,
      "semi_major_axis_km": 6737.85507973355,
      "eccentricity": 0.0001343,
      "inclination_deg": 53.1566,
      "raan_deg": 269.8221,
      "arg_perigee_deg": 69.3451,
      "mean_anomaly_deg": 290.771,
      "mean_motion_rev_day": 15.6971303
    },
    {
      "epoch": "2026-03-30T04:45:46.343520Z",
      "apogee_km": 360.62277153510604,
      "perigee_km": 358.81338793199484,
      "latitude_deg": 2.3095343963306434e-05,
      "longitude_deg": 10.785389774880423,
      "height_km": 360.3120388466824,
      "semi_major_axis_km": 6737.85507973355,
      "eccentricity": 0.00013427,
      "inclination_deg": 53.1566,
      "raan_deg": 269.8221,
      "arg_perigee_deg": 69.3451,
      "mean_anomaly_deg": 290.7711,
      "mean_motion_rev_day": 15.6971303
    },
    {
      "epoch": "2026-03-30T21:34:18.342624Z",
      "apogee_km": 360.3627501751953,
      "perigee_km": 358.7245505018727,
      "latitude_deg": -4.02902548819408e-05,
      "longitude_deg": 114.50979723027687,
      "height_km": 360.3783717960259,
      "semi_major_axis_km": 6737.680650338534,
      "eccentricity": 0.00012157,
      "inclination_deg": 53.1565,
      "raan_deg": 266.3702,
      "arg_perigee_deg": 84.5049,
      "mean_anomaly_deg": 275.6107,
      "mean_motion_rev_day": 15.69773987
    },
    {
      "epoch": "2026-03-31T18:57:52.785792Z",
      "apogee_km": 359.76086865254456,
      "perigee_km": 358.57240829071907,
      "latitude_deg": -1.6607968962779003e-05,
      "longitude_deg": 148.34292768131962,
      "height_km": 360.52981393782386,
      "semi_major_axis_km": 6737.3036384716315,
      "eccentricity": 8.82e-05,
      "inclination_deg": 53.1566,
      "raan_deg": 261.9754,
      "arg_perigee_deg": 139.0977,
      "mean_anomaly_deg": 221.0107,
      "mean_motion_rev_day": 15.69905753
    },
    {
      "epoch": "2026-04-01T17:53:07.898784Z",
      "apogee_km": 361.39407942417984,
      "perigee_km": 357.7826586263818,
      "latitude_deg": 2.3041614391634844e-06,
      "longitude_deg": 158.88064572008096,
      "height_km": 360.95979146019863,
      "semi_major_axis_km": 6737.725369025281,
      "eccentricity": 0.000268,
      "inclination_deg": 53.1583,
      "raan_deg": 257.2674,
      "arg_perigee_deg": 104.7618,
      "mean_anomaly_deg": 255.3697,
      "mean_motion_rev_day": 15.69758359
    },
    {
      "epoch": "2026-04-02T19:51:44.536320Z",
      "apogee_km": 359.895008149002,
      "perigee_km": 358.86012591150575,
      "latitude_deg": -2.0526642817834557e-06,
      "longitude_deg": 122.82555590120423,
      "height_km": 359.8207838158346,
      "semi_major_axis_km": 6737.514567030254,
      "eccentricity": 7.68e-05,
      "inclination_deg": 53.1609,
      "raan_deg": 251.9318,
      "arg_perigee_deg": 24.2967,
      "mean_anomaly_deg": 335.8087,
      "mean_motion_rev_day": 15.69832031
    },
    {
      "epoch": "2026-04-02T19:51:44.537184Z",
      "apogee_km": 359.89473864841875,
      "perigee_km": 358.860395412089,
      "latitude_deg": -5.198047446233997e-07,
      "longitude_deg": 122.82565343324065,
      "height_km": 359.82102943924065,
      "semi_major_axis_km": 6737.514567030254,
      "eccentricity": 7.676e-05,
      "inclination_deg": 53.1609,
      "raan_deg": 251.9319,
      "arg_perigee_deg": 24.2967,
      "mean_anomaly_deg": 335.8087,
      "mean_motion_rev_day": 15.69832031
    },
    {
      "epoch": "2026-04-03T18:47:00.495168Z",
      "apogee_km": 360.70089917844416,
      "perigee_km": 358.8708793217229,
      "latitude_deg": 1.5628778163627553e-05,
      "longitude_deg": 133.35963782153516,
      "height_km": 360.5683193629863,
      "semi_major_axis_km": 6737.922889250083,
      "eccentricity": 0.0001358,
      "inclination_deg": 53.1566,
      "raan_deg": 247.2237,
      "arg_perigee_deg": 81.7994,
      "mean_anomaly_deg": 278.3178,
      "mean_motion_rev_day": 15.69689334
    },
    {
      "epoch": "2026-04-04T17:42:16.187904Z",
      "apogee_km": 360.46559283495753,
      "perigee_km": 358.83504830338006,
      "latitude_deg": 5.701123104906825e-05,
      "longitude_deg": 143.8947484567362,
      "height_km": 360.80611306935293,
      "semi_major_axis_km": 6737.7873205691685,
      "eccentricity": 0.000121,
      "inclination_deg": 53.1573,
      "raan_deg": 242.5155,
      "arg_perigee_deg": 107.3048,
      "mean_anomaly_deg": 252.8103,
      "mean_motion_rev_day": 15.69736709
    },
    {
      "epoch": "2026-04-05T13:34:10.785504Z",
      "apogee_km": 359.9757178525633,
      "perigee_km": 358.78088688884054,
      "latitude_deg": -1.4803953236541968e-05,
      "longitude_deg": -158.97842968949948,
      "height_km": 360.3401094265497,
      "semi_major_axis_km": 6737.515302370702,
      "eccentricity": 8.867e-05,
      "inclination_deg": 53.1576,
      "raan_deg": 238.4357,
      "arg_perigee_deg": 94.6157,
      "mean_anomaly_deg": 265.4962,
      "mean_motion_rev_day": 15.69831774
    },
    {
      "epoch": "2026-04-05T19:40:54.659712Z",
      "apogee_km": 361.5562304980549,
      "perigee_km": 357.3843040781494,
      "latitude_deg": -3.8623199988511766e-05,
      "longitude_deg": 107.83212429586676,
      "height_km": 358.4722618183562,
      "semi_major_axis_km": 6737.607267288102,
      "eccentricity": 0.0003096,
      "inclination_deg": 53.1575,
      "raan_deg": 237.1801,
      "arg_perigee_deg": 23.6151,
      "mean_anomaly_deg": 336.5008,
      "mean_motion_rev_day": 15.69799633
    },
    {
      "epoch": "2026-04-05T19:40:54.660576Z",
      "apogee_km": 361.55656737841764,
      "perigee_km": 357.38396719778575,
      "latitude_deg": -4.0465480748909594e-05,
      "longitude_deg": 107.83211931342419,
      "height_km": 358.47195315460067,
      "semi_major_axis_km": 6737.607267288102,
      "eccentricity": 0.00030965,
      "inclination_deg": 53.1575,
      "raan_deg": 237.1801,
      "arg_perigee_deg": 23.6151,
      "mean_anomaly_deg": 336.5008,
      "mean_motion_rev_day": 15.69799633
    },
    {
      "epoch": "2026-04-07T14:28:02.817696Z",
      "apogee_km": 360.43235222456406,
      "perigee_km": 358.64835001553365,
      "latitude_deg": -2.6872496664936957e-05,
      "longitude_deg": 175.50319474785672,
      "height_km": 359.59225466683506,
      "semi_major_axis_km": 6737.677351120048,
      "eccentricity": 0.00013239,
      "inclination_deg": 53.1574,
      "raan_deg": 228.3923,
      "arg_perigee_deg": 14.7761,
      "mean_anomaly_deg": 345.3295,
      "mean_motion_rev_day": 15.6977514
    },
    {
      "epoch": "2026-04-07T17:31:24.681792Z",
      "apogee_km": 360.19347498401294,
      "perigee_km": 358.99146404665134,
      "latitude_deg": 2.9979373624630395e-05,
      "longitude_deg": 128.90882785898228,
      "height_km": 360.451186041821,
      "semi_major_axis_km": 6737.729469515332,
      "eccentricity": 8.92e-05,
      "inclination_deg": 53.1572,
      "raan_deg": 227.7645,
      "arg_perigee_deg": 84.7558,
      "mean_anomaly_deg": 275.3562,
      "mean_motion_rev_day": 15.69756926
    },
    {
      "epoch": "2026-04-08T14:54:59.465376Z",
      "apogee_km": 360.48911904011584,
      "perigee_km": 358.803864633137,
      "latitude_deg": -2.4331174270408747e-05,
      "longitude_deg": 162.7414739806705,
      "height_km": 360.4689251927469,
      "semi_major_axis_km": 6737.783491836626,
      "eccentricity": 0.00012506,
      "inclination_deg": 53.1577,
      "raan_deg": 223.3707,
      "arg_perigee_deg": 83.8142,
      "mean_anomaly_deg": 276.3018,
      "mean_motion_rev_day": 15.69738047
    },
    {
      "epoch": "2026-04-09T13:50:14.636256Z",
      "apogee_km": 360.26378037460563,
      "perigee_km": 359.0092069500861,
      "latitude_deg": -1.0182494141433023e-05,
      "longitude_deg": 173.2786425500556,
      "height_km": 360.78047801611206,
      "semi_major_axis_km": 6737.773493662346,
      "eccentricity": 9.31e-05,
      "inclination_deg": 53.1564,
      "raan_deg": 218.6624,
      "arg_perigee_deg": 111.5489,
      "mean_anomaly_deg": 248.5628,
      "mean_motion_rev_day": 15.69741541
    },
    {
      "epoch": "2026-04-10T00:32:01.853088Z",
      "apogee_km": 360.26925523686805,
      "perigee_km": 358.7221600145431,
      "latitude_deg": -2.4665047051588495e-05,
      "longitude_deg": 10.195306118817726,
      "height_km": 360.0286840553126,
      "semi_major_axis_km": 6737.632707625706,
      "eccentricity": 0.00011481,
      "inclination_deg": 53.1565,
      "raan_deg": 216.4651,
      "arg_perigee_deg": 60.5372,
      "mean_anomaly_deg": 299.576,
      "mean_motion_rev_day": 15.69790742
    }
  ]
}